[{"OBJECT_NAME":"YOTSUBA-KULOVER","OBJECT_ID":"1998-067XN","EPOCH":"2026-03-09T04:47:45.659328","MEAN_MOTION":15.80299933,"ECCENTRICITY":0.00056151,"INCLINATION":51.6212,"RA_OF_ASC_NODE":59.8333,"ARG_OF_PERICENTER":64.0479,"MEAN_ANOMALY":296.11,"EPHEMERIS_TYPE":0,"CLASSIFICATION_TYPE":"U","NORAD_CAT_ID":65941,"ELEMENT_SET_NO":999,"REV_AT_EPOCH":2342,"BSTAR":0.0011586137,"MEAN_MOTION_DOT":0.00228614,"MEAN_MOTION_DDOT":0},{"OBJECT_NAME":"STARLINK-36276","OBJECT_ID":"2026-034C","EPOCH":"2026-03-09T20:33:27.555552","MEAN_MOTION":15.80965318,"ECCENTRICITY":2.107e-5,"INCLINATION":53.1586,"RA_OF_ASC_NODE":210.5031,"ARG_OF_PERICENTER":82.0513,"MEAN_ANOMALY":278.0533,"EPHEMERIS_TYPE":0,"CLASSIFICATION_TYPE":"U","NORAD_CAT_ID":67852,"ELEMENT_SET_NO":999,"REV_AT_EPOCH":396,"BSTAR":0.0011575651,"MEAN_MOTION_DOT":0.00235104,"MEAN_MOTION_DDOT":0}]
